COSMOS 2509 (RODNIK-S *)
1 40922U 15050C   26156.21350380  .00000064  00000+0  38644-3 0  9997
2 40922  82.4887  85.7356 0015851  67.2733 293.0020 12.42883252485390
LINGQIAO VIDEO A        
1 40959U 15057B   26156.23817079  .00000987  00000+0  14538-3 0  9999
2 40959  97.6619 151.6299 0015695 312.8999  47.0894 14.77377065573641
LINGQIAO VIDEO B        
1 40960U 15057C   26156.21570544  .00000852  00000+0  12606-3 0  9997
2 40960  97.6583 152.7753 0015885 313.0106  46.9773 14.77482377573685
JILIN-1                 
1 40961U 15057D   26156.09919103  .00001042  00000+0  15042-3 0  9991
2 40961  97.6506 156.0664 0015630 306.3293  53.6475 14.78140243573823
FOX-1A (AO-85)          
1 40967U 15058D   26155.94350759  .00003528  00000+0  31879-3 0  9994
2 40967  64.7764 317.0315 0129804  61.3870 300.0228 14.90905473111742
SINOD-D 1               
1 40968U 15058E   26156.11124641  .00004835  00000+0  38868-3 0  9991
2 40968  64.7764 296.7275 0118377  57.9225 303.3317 14.95822852114853
ELEKTRO-L 2             
1 41105U 15074A   26156.06124635 -.00000106  00000+0  00000+0 0  9991
2 41105   6.6638  70.6705 0001332 281.5102 268.8844  1.00272317 38380
DAMPE                   
1 41173U 15078A   26156.20593630  .00001555  00000+0  54815-4 0  9997
2 41173  97.4557 161.6146 0013529 114.1445 246.1212 15.30753695582715
ORBCOMM FM114           
1 41179U 15081A   26152.97982418  .00000602  00000+0  16356-3 0  9992
2 41179  47.0052  73.9009 0001546 135.7645 224.3365 14.58838571555535
ORBCOMM FM110           
1 41182U 15081D   26153.99571428  .00000757  00000+0  19640-3 0  9994
2 41182  47.0024  68.5419 0003230 358.8742   1.2136 14.58854978555550
ORBCOMM FM112           
1 41184U 15081F   26154.92509755  .00000774  00000+0  19993-3 0  9994
2 41184  47.0002 332.9588 0002853 156.2959 203.8059 14.58883627557013
ORBCOMM FM113           
1 41185U 15081G   26156.20258946  .00000539  00000+0  15023-3 0  9990
2 41185  47.0019 327.2885 0001524 173.9999 186.0905 14.58845078557181
ORBCOMM FM108           
1 41187U 15081J   26152.94619103  .00000948  00000+0  23678-3 0  9994
2 41187  47.0049 254.2558 0002129 152.3962 207.7037 14.58851287557855
ORBCOMM FM117           
1 41188U 15081K   26153.73351514  .00000838  00000+0  21351-3 0  9996
2 41188  47.0011 249.1714 0002701 159.5688 200.5306 14.58849437558015
ORBCOMM FM116           
1 41189U 15081L   26156.17961066  .00000759  00000+0  19679-3 0  9999
2 41189  47.0034 327.3957 0001292 353.0293   7.0575 14.58864242557182
HORYU-4                 
1 41340U 16012D   26152.43486084  .00260233  00000+0  10081-2 0  9992
2 41340  30.9850 193.7734 0002292 171.6706 188.3991 15.85409012568302
ZIYUAN 3-02 (ZY 3-02)   
1 41556U 16033A   26156.21956924  .00005524  00000+0  24915-3 0  9991
2 41556  97.3832 232.2224 0011908 336.9069  23.1630 15.21359871556167
CARTOSAT-2C             
1 41599U 16040A   26155.34876501  .00003511  00000+0  16985-3 0  9993
2 41599  97.4487 215.5025 0009537 171.8851 188.2540 15.19210003551768
LAPAN-A3                
1 41603U 16040E   26156.24654762  .00004081  00000+0  13003-3 0  9993
2 41603  97.1489 152.7856 0011991  63.8443 296.4032 15.33027575552980
GAOFEN-3                
1 41727U 16049A   26156.15094992 -.00000001  00000+0  12899-4 0  9994
2 41727  98.4010 164.1186 0001142  97.6907 262.4412 14.42213724516911
CAS-2T & KS-1Q          
1 41847U 16066G   26155.63484800  .00001982  00000+0  28545-3 0  9991
2 41847  98.3817 231.5141 0342302 167.4688 193.5290 14.44651724502984
YUNHAI-1 01             
1 41857U 16068A   26156.15421466  .00000388  00000+0  15860-3 0  9996
2 41857  98.5829 167.2731 0006522  71.7903 288.3991 14.32697051500101
RESOURCESAT-2A          
1 41877U 16074A   26156.17620308  .00000395  00000+0  20034-3 0  9990
2 41877  98.7526 229.7780 0003271 105.9464 254.2074 14.21613401492599
TANSAT                  
1 41898U 16081A   26156.18618997  .00000510  00000+0  11680-3 0  9999
2 41898  98.5362 156.0893 0020494 350.3377   9.7425 14.59941015502872
JILIN-1 03              
1 41914U 17002B   26156.21089211  .00011511  00000+0  27847-3 0  9992
2 41914  97.1949 163.4670 0005193 194.1559 165.9544 15.41270375520016
