OBJECT_NAME,OBJECT_ID,EPOCH,MEAN_MOTION,ECCENTRICITY,INCLINATION,RA_OF_ASC_NODE,ARG_OF_PERICENTER,MEAN_ANOMALY,EPHEMERIS_TYPE,CLASSIFICATION_TYPE,NORAD_CAT_ID,ELEMENT_SET_NO,REV_AT_EPOCH,BSTAR,MEAN_MOTION_DOT,MEAN_MOTION_DDOT
COSMOS 2509 (RODNIK-S 15),2015-050C,2026-06-05T05:07:26.728320,12.42883252,.0015851,82.4887,85.7356,67.2733,293.0020,0,U,40922,999,48539,.38644E-3,.64E-6,0
LINGQIAO VIDEO A,2015-057B,2026-06-05T05:42:57.956256,14.77377065,.0015695,97.6619,151.6299,312.8999,47.0894,0,U,40959,999,57364,.14538E-3,.987E-5,0
LINGQIAO VIDEO B,2015-057C,2026-06-05T05:10:36.950016,14.77482377,.0015885,97.6583,152.7753,313.0106,46.9773,0,U,40960,999,57368,.12606E-3,.852E-5,0
JILIN-1,2015-057D,2026-06-05T02:22:50.104992,14.78140243,.001563,97.6506,156.0664,306.3293,53.6475,0,U,40961,999,57382,.15042E-3,.1042E-4,0
FOX-1A (AO-85),2015-058D,2026-06-04T22:38:39.055776,14.90905473,.0129804,64.7764,317.0315,61.3870,300.0228,0,U,40967,999,11174,.31879E-3,.3528E-4,0
SINOD-D 1,2015-058E,2026-06-05T02:40:11.689824,14.95822852,.0118377,64.7764,296.7275,57.9225,303.3317,0,U,40968,999,11485,.38868E-3,.4835E-4,0
ELEKTRO-L 2,2015-074A,2026-06-05T01:28:11.684640,1.00272317,.0001332,6.6638,70.6705,281.5102,268.8844,0,U,41105,999,3838,0,-.106E-5,0
DAMPE,2015-078A,2026-06-05T04:56:32.896320,15.30753695,.0013529,97.4557,161.6146,114.1445,246.1212,0,U,41173,999,58271,.54815E-4,.1555E-4,0
ORBCOMM FM114,2015-081A,2026-06-01T23:30:56.809152,14.58838571,.00015469,47.0052,73.9009,135.7645,224.3365,0,U,41179,999,55553,.16355792E-3,.602E-5,0
ORBCOMM FM110,2015-081D,2026-06-02T23:53:49.713792,14.58854978,.00032303,47.0024,68.5419,358.8742,1.2136,0,U,41182,999,55555,.19639955E-3,.757E-5,0
ORBCOMM FM112,2015-081F,2026-06-03T22:12:08.428320,14.58883627,.00028538,47.0002,332.9588,156.2959,203.8059,0,U,41184,999,55701,.19992831E-3,.774E-5,0
ORBCOMM FM113,2015-081G,2026-06-05T04:51:43.729344,14.58845078,.0001524,47.0019,327.2885,173.9999,186.0905,0,U,41185,999,55718,.15023E-3,.539E-5,0
ORBCOMM FM108,2015-081J,2026-06-01T22:42:30.904992,14.58851287,.00021293,47.0049,254.2558,152.3962,207.7037,0,U,41187,999,55785,.23678195E-3,.948E-5,0
ORBCOMM FM117,2015-081K,2026-06-02T17:36:15.708096,14.58849437,.00027018,47.0011,249.1714,159.5688,200.5306,0,U,41188,999,55801,.21351104E-3,.838E-5,0
ORBCOMM FM116,2015-081L,2026-06-05T04:18:38.361024,14.58864242,.0001292,47.0034,327.3957,353.0293,7.0575,0,U,41189,999,55718,.19679E-3,.759E-5,0
HORYU-4,2016-012D,2026-06-01T10:26:11.976576,15.85409012,.00022929,30.9850,193.7734,171.6706,188.3991,0,U,41340,999,56830,.10080768E-2,.260233E-2,0
ZIYUAN 3-02 (ZY 3-02),2016-033A,2026-06-05T05:16:10.782336,15.21359871,.0011908,97.3832,232.2224,336.9069,23.1630,0,U,41556,999,55616,.24915E-3,.5524E-4,0
CARTOSAT-2C,2016-040A,2026-06-04T08:22:13.296864,15.19210003,.00095375,97.4487,215.5025,171.8851,188.2540,0,U,41599,999,55176,.16984553E-3,.3511E-4,0
LAPAN-A3,2016-040E,2026-06-05T05:55:01.714368,15.33027575,.0011991,97.1489,152.7856,63.8443,296.4032,0,U,41603,999,55298,.13003E-3,.4081E-4,0
GAOFEN-3,2016-049A,2026-06-05T03:37:22.073088,14.42213724,.0001142,98.4010,164.1186,97.6907,262.4412,0,U,41727,999,51691,.12899E-4,-.1E-7,0
CAS-2T & KS-1Q,2016-066G,2026-06-04T15:14:10.867200,14.44651724,.03423023,98.3817,231.5141,167.4688,193.5290,0,U,41847,999,50298,.28544745E-3,.1982E-4,0
YUNHAI-1 01,2016-068A,2026-06-05T03:42:04.146624,14.32697051,.0006522,98.5829,167.2731,71.7903,288.3991,0,U,41857,999,50010,.1586E-3,.388E-5,0
RESOURCESAT-2A,2016-074A,2026-06-05T04:13:43.946112,14.21613401,.0003271,98.7526,229.7780,105.9464,254.2074,0,U,41877,999,49259,.20034E-3,.395E-5,0
TANSAT,2016-081A,2026-06-05T04:28:06.813408,14.59941015,.0020494,98.5362,156.0893,350.3377,9.7425,0,U,41898,999,50287,.1168E-3,.51E-5,0
JILIN-1 03,2017-002B,2026-06-05T05:03:41.078304,15.41270375,.0005193,97.1949,163.4670,194.1559,165.9544,0,U,41914,999,52001,.27847E-3,.11511E-3,0
